"column","district","restaurantName","address","contactInfo","googlereviewlink","openingtime","latitude","longitude","ratingintotaloffive","ratingcategories","restauranttype","restaurantcoverphotourl"
"1","大學城","淡大老四川牛肉麵","251新北市淡水區北新路182巷5弄3號","(02) 226251245","https://reurl.cc/4o0YGL","星期一~星期四:09:00–20:30/星期五~星期日:09:00–20:00","25.1773737","121.4474727","4.3","4.5分或以上","麵食館","https://raw.githubusercontent.com/paulLamProgramming/foodmapimageinTamsui/main/%E5%A4%A7%E5%AD%B8%E5%9F%8Egithub/%E6%B7%A1%E5%A4%A7%E8%80%81%E5%9B%9B%E5%B7%9D%E7%89%9B%E8%82%89%E9%BA%B5/IMG_7613.PNG"
"2","大學城","飯糰霸韓式海苔飯捲","251新北市淡水區(店面在淡大老四川牛肉麵的左邊)","0910-320-018、(02) 2628-3725","https://reurl.cc/x7re4Z","星期一~星期日:10:00–19:00","25.1773615","121.4474312","3.7","3分或以上","日式料理餐廳","https://raw.githubusercontent.com/paulLamProgramming/foodmapimageinTamsui/main/%E5%A4%A7%E5%AD%B8%E5%9F%8Egithub2/%E9%A3%AF%E7%B3%B0%E9%9C%B8%E9%9F%93%E5%BC%8F%E6%B5%B7%E8%8B%94%E9%A3%AF%E6%8D%B2/IMG_7616.PNG"
"3","大學城","大陸麵店","251新北市淡水區北新路182巷5弄25號1樓","(02) 226253231","https://reurl.cc/RzZREx","星期一~星期六:11:30–20:30/星期日:休息","25.1766344","121.25692","4.1","4分或以上","麵食館","https://raw.githubusercontent.com/paulLamProgramming/foodmapimageinTamsui/main/%E5%A4%A7%E5%AD%B8%E5%9F%8Egithub/%E5%A4%A7%E9%99%B8%E9%BA%B5%E5%BA%97/IMG_7622.PNG"
"4","大學城","力霸椒麻雞","251新北市淡水區北新路182巷5弄18號","(02) 226200408","https://reurl.cc/656Xxb","星期一~星期五:11:00–20:30/星期六、星期日:休息","25.177447","121.4470769","4","4分或以上","便當店","https://raw.githubusercontent.com/paulLamProgramming/foodmapimageinTamsui/main/%E5%A4%A7%E5%AD%B8%E5%9F%8Egithub/%E5%8A%9B%E9%9C%B8%E6%A4%92%E9%BA%BB%E9%9B%9E/IMG_7695.PNG"
"5","大學城","士林廟口阿輝麵線淡大店","251新北市淡水區北新路182巷5弄36號","0926-045-767","https://reurl.cc/656XMO","星期一~星期五:10:30–23:30/星期六、星期日:休息","25.1773066","121.4467487","4.4","4分或以上","麵食館","https://raw.githubusercontent.com/paulLamProgramming/foodmapimageinTamsui/main/%E5%A4%A7%E5%AD%B8%E5%9F%8Egithub/%E5%A3%AB%E6%9E%97%E5%BB%9F%E5%8F%A3%E9%98%BF%E8%BC%9D%E9%BA%B5%E7%B7%9A%E6%B7%A1%E5%A4%A7%E5%BA%97/IMG_7647.PNG"
"6","大學城","文化大學牛肉拌麵 (淡水)","251新北市淡水區北新路182巷21弄18號","(02) 226238220","https://reurl.cc/OvyQar","星期一~星期日:10:30–20:30","25.1772128","121.4460827","4.7","4.5分或以上","台式料理店","https://raw.githubusercontent.com/paulLamProgramming/foodmapimageinTamsui/main/%E5%A4%A7%E5%AD%B8%E5%9F%8Egithub/%E6%96%87%E5%8C%96%E5%A4%A7%E5%AD%B8%E7%89%9B%E8%82%89%E6%8B%8C%E9%BA%B5%20(%E6%B7%A1%E6%B0%B4)/IMG_7688.PNG"
"7","大學城","吃呼義料","251新北市淡水區北新路182巷21弄13號","(02) 226298046","https://reurl.cc/7k1YAQ","星期一~星期四:11:00–14:30、16:00–20:00/星期日:11:00–14:30、17:00–20:00/星期五:11:00–14:00/星期六:休息","25.1770108","121.4458605","4","4分或以上","義式料理餐廳","https://raw.githubusercontent.com/paulLamProgramming/foodmapimageinTamsui/main/%E5%A4%A7%E5%AD%B8%E5%9F%8Egithub/%E5%90%83%E5%91%BC%E7%BE%A9%E6%96%99/IMG_7718.PNG"
"8","大學城","好吃刈包糯米腸","251新北市淡水區北新路182巷13號","0937-340-622","https://reurl.cc/AANXeE","星期一~星期四、星期日:11:00–20:00/星期五、星期六:休息","25.1777926","121.4466298","4.3","4分或以上","台式料理店","https://raw.githubusercontent.com/paulLamProgramming/foodmapimageinTamsui/main/%E5%A4%A7%E5%AD%B8%E5%9F%8Egithub/%E5%A5%BD%E5%90%83%E5%88%88%E5%8C%85%E7%B3%AF%E7%B1%B3%E8%85%B8/IMG_7657.PNG"
"9","大學城","老發港式小廚","251新北市淡水區北新路182巷5弄26號","(02) 286313866","https://reurl.cc/aVWEmQ","星期一、星期三~星期五:11:00–20:00/星期六:12:00–20:00/星期日:休息","25.1774214","121.4469509","4.3","4分或以上","港式料理餐廳","https://raw.githubusercontent.com/paulLamProgramming/foodmapimageinTamsui/main/%E5%A4%A7%E5%AD%B8%E5%9F%8Egithub/%E8%80%81%E7%99%BC%E6%B8%AF%E5%BC%8F%E5%B0%8F%E5%BB%9A/IMG_7704.PNG"
"10","大學城","淡水盒 x 活力餐廚（淡水店）","251新北市淡水區北新路182巷31號","0912-689-660","https://reurl.cc/p6k8ed","星期一~星期日:11:00–20:00","25.1774835","121.4460844","4.3","4分或以上","健康餐廳","https://raw.githubusercontent.com/paulLamProgramming/foodmapimageinTamsui/main/%E5%A4%A7%E5%AD%B8%E5%9F%8Egithub/%E6%B7%A1%E6%B0%B4%E7%9B%92%20x%20%E6%B4%BB%E5%8A%9B%E9%A4%90%E5%BB%9A%EF%BC%88%E6%B7%A1%E6%B0%B4%E5%BA%97%EF%BC%89/IMG_7689.PNG"
"11","大學城","清水誠食堂","251新北市淡水區北新路182巷21弄3-1號","無","https://reurl.cc/QXvNKo","星期一~星期五:09:00–20:00/星期六、星期日:休息","25.1771636","121.4463631","4.5","4.5分或以上","日式料理餐廳","https://raw.githubusercontent.com/paulLamProgramming/foodmapimageinTamsui/main/%E5%A4%A7%E5%AD%B8%E5%9F%8Egithub/%E6%B8%85%E6%B0%B4%E8%AA%A0%E9%A3%9F%E5%A0%82/IMG_7725.PNG"
"12","大學城","麥德多","251新北市淡水區北新路182巷21弄1號","(02) 226238947","https://reurl.cc/LAkeGx","星期一~星期五:07:00–20:00/星期六、星期日:休息","25.1774844","121.4464475","4","4分或以上","早午餐店","https://raw.githubusercontent.com/paulLamProgramming/foodmapimageinTamsui/main/%E5%A4%A7%E5%AD%B8%E5%9F%8Egithub/%E9%BA%A5%E5%BE%B7%E5%A4%9A/IMG_7641.PNG"
"13","大學城","尋早餐吧","251新北市淡水區北新路182巷21弄12號","(02) 226225821","https://reurl.cc/kXz9zq","星期一~星期日:07:00–14:30","25.1772809","121.4462559","4.6","4.5分或以上","早午餐店","https://raw.githubusercontent.com/paulLamProgramming/foodmapimageinTamsui/main/%E5%A4%A7%E5%AD%B8%E5%9F%8Egithub/%E5%B0%8B%E6%97%A9%E9%A4%90%E5%90%A7/IMG_7652.PNG"
"14","大學城","晶淳快餐店","251新北市淡水區北新路182巷29號","(02) 286313509","https://reurl.cc/VLdn96","星期一~星期六:10:00–20:00/星期日:休息","25.1774528","121.4460919","4.6","4.5分或以上","便當店","https://raw.githubusercontent.com/paulLamProgramming/foodmapimageinTamsui/main/%E5%A4%A7%E5%AD%B8%E5%9F%8Egithub/%E6%99%B6%E6%B7%B3%E5%BF%AB%E9%A4%90%E5%BA%97/IMG_7667.PNG"
"15","大學城","滄州燒臘快餐","251新北市淡水區北新路182巷33號","(02) 226233433","https://reurl.cc/p6k8G4","星期一~星期三、星期五~星期日:11:00–20:00/星期四:休息","25.1774147","121.4460566","3.9","3分或以上","便當店","https://raw.githubusercontent.com/paulLamProgramming/foodmapimageinTamsui/main/%E5%A4%A7%E5%AD%B8%E5%9F%8Egithub2/%E6%BB%84%E5%B7%9E%E7%87%92%E8%87%98%E5%BF%AB%E9%A4%90/IMG_7705.PNG"
"16","大學城","聖堡食坊","251新北市淡水區北新路182巷21弄8號","(02) 226224976","https://reurl.cc/QXvNrb","星期一~星期五、星期日:11:00–20:30/星期六:休息","25.1773055","121.4463361","3.6","3分或以上","台式料理店","https://raw.githubusercontent.com/paulLamProgramming/foodmapimageinTamsui/main/%E5%A4%A7%E5%AD%B8%E5%9F%8Egithub2/%E8%81%96%E5%A0%A1%E9%A3%9F%E5%9D%8A/IMG_7635.PNG"
"17","大學城","補蛋計畫","251新北市淡水區北新路182巷3弄28號","(02) 226200396","https://reurl.cc/v7ZGYA","星期一~星期五:11:00–14:00、16:00–20:00/星期六、星期日:休息","25.1775288","121.4468896","4.7","4.5分或以上","健康餐廳","https://raw.githubusercontent.com/paulLamProgramming/foodmapimageinTamsui/main/%E5%A4%A7%E5%AD%B8%E5%9F%8Egithub2/%E8%A3%9C%E8%9B%8B%E8%A8%88%E7%95%AB/IMG_7632.PNG"
"18","大學城","噴火龍","251新北市淡水區北新路182巷3弄16號","(02) 226261680","https://reurl.cc/DAVYzN","星期一~星期四:09:30–19:30/星期五:09:30–17:30/星期日:11:00–16:00/星期六:休息","25.1776009","121.4469244","4.4","4分或以上","早午餐店","https://raw.githubusercontent.com/paulLamProgramming/foodmapimageinTamsui/main/%E5%A4%A7%E5%AD%B8%E5%9F%8Egithub2/%E5%99%B4%E7%81%AB%E9%BE%8D/IMG_7662.PNG"
"19","大學城","醬飯屋","251新北市淡水區北新路182巷41弄10號","(02) 286316029","https://reurl.cc/b9Oe0l","星期一~星期五、星期日:11:00–19:30/星期六:休息","25.1771989","121.4457615","4.4","4分或以上","日式料理餐廳","https://raw.githubusercontent.com/paulLamProgramming/foodmapimageinTamsui/main/%E5%A4%A7%E5%AD%B8%E5%9F%8Egithub2/%E9%86%AC%E9%A3%AF%E5%B1%8B/IMG_7672.PNG"
"20","大學城","Eat窩","251新北市淡水區北新路182巷21弄11號","(02) 226203898","https://reurl.cc/LAkeYX","星期一~星期六:11:00–14:30、17:00–20:30/星期日:休息","25.177071","121.4460547","4.1","4分或以上","義式料理餐廳","https://raw.githubusercontent.com/paulLamProgramming/foodmapimageinTamsui/main/%E5%A4%A7%E5%AD%B8%E5%9F%8Egithub/Eat%E7%AA%A9/IMG_7713.PNG"
"21","金雞母","好糧（淡大店）","251新北市淡水區北新路184巷88號","無電話/line:@fho8535c","https://reurl.cc/y73Ox2","星期一~星期五:11:30–14:00、17:30–20:00/星期六、星期日:休息","25.1779365","121.4481796","4.3","4分或以上","健康餐廳","https://raw.githubusercontent.com/paulLamProgramming/foodmapimageinTamsui/main/%E9%87%91%E9%9B%9E%E6%AF%8Dgithub/%E5%A5%BD%E7%B3%A7(%E6%B7%A1%E5%A4%A7%E5%BA%97)/IMG_7733.PNG"
"22","金雞母","悠閒餐屋","251新北市淡水區北新路184巷208號1樓","0920-966-193","https://reurl.cc/aVWXp3","星期一~星期五:11:00–20:30/星期六、星期日:休息","25.176958","121.4485134","3.7","3分或以上","日式料理餐廳","https://raw.githubusercontent.com/paulLamProgramming/foodmapimageinTamsui/main/%E9%87%91%E9%9B%9E%E6%AF%8Dgithub2/%E6%82%A0%E9%96%92%E9%A4%90%E5%B1%8B/IMG_7465.PNG"
"23","金雞母","豪客健身餐","251新北市淡水區北新路184巷212號1樓","無電話/ig: @haocook.fitmeal、fb:豪客健身餐","https://reurl.cc/gDqNkQ","星期一~星期五、星期日:11:00–14:00、17:00–20:00/星期六:休息","25.176904","121.4485999","4.1","4分或以上","健康餐廳","https://raw.githubusercontent.com/paulLamProgramming/foodmapimageinTamsui/main/%E9%87%91%E9%9B%9E%E6%AF%8Dgithub2/%E8%B1%AA%E5%AE%A2%E5%81%A5%E8%BA%AB%E9%A4%90/IMG_7585.PNG"
"24","金雞母","吃飯大學","251新北市淡水區北新路184巷200號1樓","(02) 286317942","https://reurl.cc/nD8xnD","星期一~星期五、星期日:11:00–20:00/星期六:休息","25.1768949","121.4487994","4","4分或以上","台式料理店","https://raw.githubusercontent.com/paulLamProgramming/foodmapimageinTamsui/main/%E9%87%91%E9%9B%9E%E6%AF%8Dgithub/%E5%90%83%E9%A3%AF%E5%A4%A7%E5%AD%B8/IMG_7514.PNG"
"25","金雞母","藍田早餐","25166新北市淡水區北新路184巷192號1樓","(02) 226235567","https://reurl.cc/2Ld7xE","星期一~星期五:06:30–14:00/星期六:07:30–14:00/星期日:休息","24.5420999","120.4663574","4.4","4分或以上","早午餐店","https://raw.githubusercontent.com/paulLamProgramming/foodmapimageinTamsui/main/%E9%87%91%E9%9B%9E%E6%AF%8Dgithub2/%E8%97%8D%E7%94%B0%E6%97%A9%E9%A4%90/IMG_7545.PNG"
"26","金雞母","煎匙早午餐揚州炒飯","251新北市淡水區北新路184巷180號 168號1樓","(02) 226283585","https://reurl.cc/4o0Ykv","星期一~星期四:09:30–14:00/星期五~星期日:休息","25.1770058","121.449028","4.7","4.5分或以上","早午餐店","https://raw.githubusercontent.com/paulLamProgramming/foodmapimageinTamsui/main/%E9%87%91%E9%9B%9E%E6%AF%8Dgithub2/%E7%85%8E%E5%8C%99%E6%97%A9%E5%8D%88%E9%A4%90%E6%8F%9A%E5%B7%9E%E7%82%92%E9%A3%AF/IMG_7615.PNG"
"27","金雞母","鄭媽媽早餐屋","251新北市淡水區水源街二段177巷1樓","無","https://reurl.cc/gDqN07","星期一~星期五:06:00–13:30/星期六、星期日:休息","25.1771087","121.4490157","4","4分或以上","早午餐店","https://raw.githubusercontent.com/paulLamProgramming/foodmapimageinTamsui/main/%E9%87%91%E9%9B%9E%E6%AF%8Dgithub2/%E9%84%AD%E5%AA%BD%E5%AA%BD%E6%97%A9%E9%A4%90%E5%B1%8B/IMG_7570.PNG"
"28","金雞母","美而寶","251新北市淡水區北新路184巷158號1樓","(02) 226291810","https://reurl.cc/N07Opm","星期二~星期日:08:00–14:30/星期一:休息","25.1772435","121.4487737","4.3","4分或以上","早午餐店","https://github.com/paulLamProgramming/foodmapimageinTamsui/blob/main/%E9%87%91%E9%9B%9E%E6%AF%8Dgithub/%E7%BE%8E%E8%80%8C%E5%AF%B6/IMG_7560.PNG?raw=true"
"29","金雞母","滷獲至飽","251新北市淡水區北新路184巷162號1樓","無","https://reurl.cc/3x2yoR","星期一~星期日:18:00–00:00","25.1771361","121.4489755","4.3","4分或以上","滷味店","https://github.com/paulLamProgramming/foodmapimageinTamsui/blob/main/%E9%87%91%E9%9B%9E%E6%AF%8Dgithub2/%E6%BB%B7%E7%8D%B2%E8%87%B3%E9%A3%BD/IMG_7573.PNG?raw=true"
"30","金雞母","Buona Pasta 金雞母店","251新北市淡水區北新路184巷142弄9號1樓","(02) 286313386","https://reurl.cc/jDnVl2","星期一~星期日:11:30–14:30、17:00–20:00","25.1771813","121.4484655","4.3","4分或以上","義式料理餐廳","https://github.com/paulLamProgramming/foodmapimageinTamsui/blob/main/%E9%87%91%E9%9B%9E%E6%AF%8Dgithub/Buona%20Pasta%20%E9%87%91%E9%9B%9E%E6%AF%8D%E5%BA%97/IMG_7598.PNG?raw=true"
"31","金雞母","樂之屋","251新北市淡水區北新路184巷142弄5號1樓","0987-501-360","https://reurl.cc/YeAmeo","星期一~星期五:12:10–22:30/星期日:17:00–23:00/星期六:休息","25.1773396","121.448602","4.5","4.5分或以上","日式料理餐廳","https://raw.githubusercontent.com/paulLamProgramming/foodmapimageinTamsui/main/%E9%87%91%E9%9B%9E%E6%AF%8Dgithub2/%E6%A8%82%E4%B9%8B%E5%B1%8B/IMG_7587.PNG"
"32","金雞母","回味小吃店","251新北市淡水區北新路184巷142弄3號1樓","(02) 226225583","https://reurl.cc/QXvNe2","星期一~星期五:11:00–14:00、17:00–20:00/星期六、星期日:休息","25.1773396","121.4486019","4","4分或以上","台式料理店","https://raw.githubusercontent.com/paulLamProgramming/foodmapimageinTamsui/main/%E9%87%91%E9%9B%9E%E6%AF%8Dgithub/%E5%9B%9E%E5%91%B3%E5%B0%8F%E5%90%83%E5%BA%97/IMG_7520.PNG"
"33","金雞母","Otto Pasta 義大利麵/義式餐廳 淡水店","251新北市淡水區北新路184巷142弄12號1樓","(02) 226281741","https://reurl.cc/qLlanE","星期一~星期日:11:00–19:50","25.1771506","121.4482583","4.6","4.5分或以上","義式料理餐廳","https://github.com/paulLamProgramming/foodmapimageinTamsui/blob/main/%E9%87%91%E9%9B%9E%E6%AF%8Dgithub/Otto%20Pasta%20%E7%BE%A9%E5%A4%A7%E5%88%A9%E9%BA%B5-%E7%BE%A9%E5%BC%8F%E9%A4%90%E5%BB%B3%20%E6%B7%A1%E6%B0%B4%E5%BA%97/IMG_7592.PNG?raw=true"
"34","金雞母","胖達關東煮","251新北市淡水區北新路一段184巷43號","0918-860-395","https://reurl.cc/WG2z0Z","星期一~星期五、星期日:17:00-2:00/星期六:休息","25.1778451","121.4482607","4.6","4.5分或以上","日式料理餐廳","https://raw.githubusercontent.com/paulLamProgramming/foodmapimageinTamsui/main/%E9%87%91%E9%9B%9E%E6%AF%8Dgithub/%E8%83%96%E9%81%94%E9%97%9C%E6%9D%B1%E7%85%AE/IMG_7555.PNG"
"35","金雞母","台灣第一家鹽酥雞","251新北市淡水區北新路184巷43號","0937-978-365","https://reurl.cc/x7re31","星期一~星期日:16:00–00:30","25.1778637","121.4482349","3.9","3分或以上","炸物店","https://raw.githubusercontent.com/paulLamProgramming/foodmapimageinTamsui/main/%E9%87%91%E9%9B%9E%E6%AF%8Dgithub/%E5%8F%B0%E7%81%A3%E7%AC%AC%E4%B8%80%E5%AE%B6%E9%B9%BD%E9%85%A5%E9%9B%9E/IMG_7550.PNG"
"36","金雞母","那間丼飯‧咖哩專賣所","251新北市淡水區北新路184巷52號1樓","(02) 226255815","https://reurl.cc/o7amYM","星期一~星期五:11:30–00:00/星期六、星期日:17:00–00:00","25.1776335","121.4483165","3.6","3分或以上","日式料理餐廳","https://raw.githubusercontent.com/paulLamProgramming/foodmapimageinTamsui/main/%E9%87%91%E9%9B%9E%E6%AF%8Dgithub/%E9%82%A3%E9%96%93%20%E4%B8%BC%E9%A3%AF%E2%80%A7%E5%92%96%E5%93%A9%E5%B0%88%E8%B3%A3%E6%89%80/IMG_7603.PNG"
"37","金雞母","早食雞Eating Bar","251新北市淡水區北新路184巷106號1樓","0986-966-352","https://reurl.cc/jDnVmZ","星期一~星期日:08:30–14:30","25.177499","121.4477495","4.7","4.5分或以上","早午餐店","https://github.com/paulLamProgramming/foodmapimageinTamsui/blob/main/%E9%87%91%E9%9B%9E%E6%AF%8Dgithub/%E6%97%A9%E9%A3%9F%E9%9B%9EEating%20Bar/IMG_7534.PNG?raw=true"
"38","金雞母","南洋好食 Culinary Recipe","251新北市淡水區北新路184巷120號B2樓1樓","0909-266-138","https://reurl.cc/8jgYe7","星期一~星期五:11:30–15:00、17:00–20:30/星期六、星期日:休息","25.1774608","121.4476331","4.4","4分或以上","排餐餐廳","https://raw.githubusercontent.com/paulLamProgramming/foodmapimageinTamsui/main/%E9%87%91%E9%9B%9E%E6%AF%8Dgithub/%E5%8D%97%E6%B4%8B%E5%A5%BD%E9%A3%9F%20Culinary%20Recipe/IMG_7527.PNG"
"39","金雞母","茶小二‧試嚐知","251新北市淡水區北新路184巷62號","(02) 226235267","https://reurl.cc/AANXXQ","星期一~星期五:11:00–20:00/星期六、星期日:休息","25.1775219","121.4484719","4.4","4分或以上","台式料理店","https://raw.githubusercontent.com/paulLamProgramming/foodmapimageinTamsui/main/%E9%87%91%E9%9B%9E%E6%AF%8Dgithub2/%E8%8C%B6%E5%B0%8F%E4%BA%8C%E2%80%A7%E8%A9%A6%E5%9A%90%E7%9F%A5/IMG_7533.PNG"
"40","金雞母","The PIrate Bay 海盜灣漢堡","251新北市淡水區北新路184巷122號B1樓1樓","0909-696-500","https://reurl.cc/gDqNlQ","星期一~星期五:12:00–14:00、17:00–20:30/星期六、星期日:17:00–20:00","25.1774765","121.4475985","4.1","4分或以上","美式料理餐廳","https://raw.githubusercontent.com/paulLamProgramming/foodmapimageinTamsui/main/%E9%87%91%E9%9B%9E%E6%AF%8Dgithub/The%20PIrate%20Bay%20%E6%B5%B7%E7%9B%9C%E7%81%A3%E6%BC%A2%E5%A0%A1/IMG_7679.PNG"
"41","水源街","鮮富洋食館","251新北市淡水區水源街二段118號","(02) 226255085","https://reurl.cc/658WzV","星期一~星期四:11:15-14:00、17:00-20:00/星期六、星期日:11:30-14:00、17:00-20:00/星期五:休息","25.1745279","121.4502435","4.6","4.5分或以上","義式料理餐廳","https://github.com/paulLamProgramming/foodmapimageinTamsui/blob/main/%E6%B0%B4%E6%BA%90%E8%A1%97github2/%E9%AE%AE%E5%AF%8C%E6%B4%8B%E9%A3%9F%E9%A4%A8/S__381673491.jpg?raw=true"
"42","水源街","初米小路","251新北市淡水區水源街二段74巷3號1樓","0226-210-156","https://reurl.cc/651rxb","星期一~星期五、星期日:11:00–14:00、17:00–19:30/星期六:休息","25.1740612","121.4488262","4.9","4.5分或以上","日式料理餐廳","https://github.com/paulLamProgramming/foodmapimageinTamsui/blob/main/%E6%B0%B4%E6%BA%90%E8%A1%97github/%E5%88%9D%E7%B1%B3%E5%B0%8F%E8%B7%AF/IMG_8170.PNG?raw=true"
"43","水源街","淡水烤大學-平價火烤吃到飽","251新北市淡水區水源街二段102號","0958-309-601","https://reurl.cc/RzNAM9","星期一~星期五:10:30-14:00 、17:00-21:30/星期六、星期日:17:00-21:30","25.1744755","121.4495942","4.2","4分或以上","火烤吃到飽餐廳","https://github.com/paulLamProgramming/foodmapimageinTamsui/blob/main/%E6%B0%B4%E6%BA%90%E8%A1%97github/%E6%B7%A1%E6%B0%B4%E7%83%A4%E5%A4%A7%E5%AD%B8-%E5%B9%B3%E5%83%B9%E7%81%AB%E7%83%A4%E5%90%83%E5%88%B0%E9%A3%BD/S__381780011.jpg?raw=true"
"44","水源街","滷味王","251新北市淡水區水源街二段108號","(02) 286311579","https://reurl.cc/WGnj97","星期一~星期日:18:00-2:00","25.1744755","121.4495942","4.2","4分或以上","滷味店","https://raw.githubusercontent.com/paulLamProgramming/foodmapimageinTamsui/main/%E6%B0%B4%E6%BA%90%E8%A1%97github/%E6%BB%B7%E5%91%B3%E7%8E%8B/S__381657107.jpg"
"45","水源街","七嘴八舌韓風滷味","251新北市淡水區水源街二段74巷2號","0903-717-878","https://reurl.cc/Ovl93r","星期一~星期日:15:30–01:00","25.1779513","121.2548552","4.4","4分或以上","滷味店","https://raw.githubusercontent.com/paulLamProgramming/foodmapimageinTamsui/main/%E6%B0%B4%E6%BA%90%E8%A1%97github/%E4%B8%83%E5%98%B4%E5%85%AB%E8%88%8C%E9%9F%93%E9%A2%A8%E6%BB%B7%E5%91%B3/IMG_8171.PNG"
"46","水源街","雞加酒(淡水店)","251新北市淡水區水源街二段98號","(02) 226261212","https://reurl.cc/lD186E","星期一~星期五:11:00-14:00、17:00-23:00/星期六、星期日:17:00-23:00","25.1744632","121.449588","4.1","4分或以上","炸物店","https://raw.githubusercontent.com/paulLamProgramming/foodmapimageinTamsui/main/%E6%B0%B4%E6%BA%90%E8%A1%97github2/%E9%9B%9E%E5%8A%A0%E9%85%92(%E6%B7%A1%E6%B0%B4%E5%BA%97)/S__381780016.jpg"
"47","水源街","碳烤王","251新北市淡水區水源街二段94號","無","https://reurl.cc/r5ep71","星期一~星期六:18:00-23:30/星期日:休息","25.1744162","121.4492433","4.3","4分或以上","串燒烤肉店","https://raw.githubusercontent.com/paulLamProgramming/foodmapimageinTamsui/main/%E6%B0%B4%E6%BA%90%E8%A1%97github2/%E7%A2%B3%E7%83%A4%E7%8E%8B/S__381673474.jpg"
"48","水源街","伍蝶","251新北市淡水區水源街二段82號","(02) 226294187","https://reurl.cc/658W65","星期一~星期五、星期日:18:00-3:30/星期六:休息","25.1742556","121.4490965","4","4分或以上","台式料理店","https://github.com/paulLamProgramming/foodmapimageinTamsui/blob/main/%E6%B0%B4%E6%BA%90%E8%A1%97github/%E4%BC%8D%E8%9D%B6/S__381779998.jpg?raw=true"
"49","水源街","讚牛排","251新北市淡水區水源街二段96號","0958-168-917","https://reurl.cc/DA0aVO","星期一~星期日:11:00-15:30、16:30-23:00","25.174373","121.4495309","4.2","4分或以上","美式扒房","https://github.com/paulLamProgramming/foodmapimageinTamsui/blob/main/%E6%B0%B4%E6%BA%90%E8%A1%97github/(%E6%9C%89%E6%94%B9%E5%9C%96%E7%89%87)%E8%AE%9A%E7%89%9B%E6%8E%92/%E8%AE%9A%E7%89%9B%E6%8E%924.jpg?raw=true"
"50","水源街","紅茶洋行 淡大店","251新北市淡水區水源街二段116號","0925-595-182","https://reurl.cc/651rzk","星期一~星期日:11:00-23:00","25.1743894","121.4501684","4.5","4.5分或以上","冰品飲料店","https://raw.githubusercontent.com/paulLamProgramming/foodmapimageinTamsui/main/%E6%B0%B4%E6%BA%90%E8%A1%97github/%E7%B4%85%E8%8C%B6%E6%B4%8B%E8%A1%8C%20%E6%B7%A1%E5%A4%A7%E5%BA%97/IMG_8180.PNG"
"51","水源街","禎饌廚房","251新北市淡水區水源街二段40號1樓","(02) 226203250","https://reurl.cc/dDYRY2","星期一~星期日:11:00-20:30","25.1736882","121.4477735","4.4","4分或以上","義式料理餐廳","https://github.com/paulLamProgramming/foodmapimageinTamsui/blob/main/%E6%B0%B4%E6%BA%90%E8%A1%97github2/%E7%A6%8E%E9%A5%8C%E5%BB%9A%E6%88%BF/%E7%8F%8D%E9%A5%8C1.jpg?raw=true"
"52","水源街","漁川食堂","251新北市淡水區水源街二段74巷20號","0909-550-900","https://reurl.cc/QXM0Mo","星期二~星期日:11:30-14:00、17:00-21:00/星期一:17:00–21:00","25.173677","121.4494792","4.4","4分或以上","日式料理餐廳","https://github.com/paulLamProgramming/foodmapimageinTamsui/blob/main/%E6%B0%B4%E6%BA%90%E8%A1%97github/%E6%BC%81%E5%B7%9D%E9%A3%9F%E5%A0%82/S__381780012.jpg?raw=true"
"53","水源街","Buona Pasta(水源店)","251新北市淡水區水源街二段92巷5弄2號","(02) 226293083","https://reurl.cc/QXM0M0","星期一~星期日:11:30-15:00、17:00-21:00","25.173849","121.4493721","4.6","4.5分或以上","義式料理餐廳","https://github.com/paulLamProgramming/foodmapimageinTamsui/blob/main/%E6%B0%B4%E6%BA%90%E8%A1%97github/bunoa%20pasta%E6%B0%B4%E6%BA%90%E5%BA%97/bunoa%20pasta1.jpg?raw=true"
"54","水源街","精品雞排-水源店","251新北市淡水區水源街二段74巷27號","(02) 226255802","https://reurl.cc/dDE6Nk","星期一~星期五、星期日:15:00–01:00/星期六:休息","25.1738576","121.4494876","4.6","4.5分或以上","炸物店","https://raw.githubusercontent.com/paulLamProgramming/foodmapimageinTamsui/main/%E6%B0%B4%E6%BA%90%E8%A1%97github2/%E7%B2%BE%E5%93%81%E9%9B%9E%E6%8E%92-%E6%B0%B4%E6%BA%90%E5%BA%97/IMG_8190.PNG"
"55","水源街","樂園臭臭鍋","251新北市淡水區水源街二段80號","0968-703-918","https://reurl.cc/516Y67","星期一~星期五:16:00–22:00/星期六、星期日:休息","25.1741573","121.448784","4.7","4.5分或以上","火鍋餐廳","https://raw.githubusercontent.com/paulLamProgramming/foodmapimageinTamsui/main/%E6%B0%B4%E6%BA%90%E8%A1%97github2/%E6%A8%82%E5%9C%92%E8%87%AD%E8%87%AD%E9%8D%8B/IMG_8195.PNG"
"56","水源街","高松日式屋","251新北市淡水區水源街二段92巷13號","(02) 226221715","https://reurl.cc/eDrqRR","星期一~星期六:11:00–16:00、17:00–20:30/星期日:休息","25.1734961","121.4498113","4.1","4分或以上","日式料理餐廳","https://github.com/paulLamProgramming/foodmapimageinTamsui/blob/main/%E6%B0%B4%E6%BA%90%E8%A1%97github/%E9%AB%98%E6%9D%BE%E6%97%A5%E5%BC%8F%E5%B1%8B/%E9%AB%98%E6%9D%BE1.jpg?raw=true"
"57","水源街","幸宗壽司","251新北市淡水區水源街二段58號","(02) 226294621","https://reurl.cc/aV3QoG","星期一~星期五、星期日:11:00–20:30/星期六:休息","25.1739431","121.4483716","4.7","4.5分或以上","壽司店","https://github.com/paulLamProgramming/foodmapimageinTamsui/blob/main/%E6%B0%B4%E6%BA%90%E8%A1%97github/%E5%B9%B8%E5%AE%97%E5%A3%BD%E5%8F%B8/S__381657096.jpg?raw=true"
"58","水源街","蛋白盒子TheProteinbox-淡江圖側店","251新北市淡水區水源街二段52號","(02)2620-9010/LINE:@517acvjw","https://reurl.cc/v7lVye","星期一~星期五:11:00–14:00、17:00–20:00/星期六、星期日:休息","25.1738246","121.4482119","4.9","4.5分或以上","健康餐廳","https://github.com/paulLamProgramming/foodmapimageinTamsui/blob/main/%E6%B0%B4%E6%BA%90%E8%A1%97github/%E8%9B%8B%E7%99%BD%E7%9B%92%E5%AD%90TheProteinbox-%E6%B7%A1%E6%B1%9F%E5%9C%96%E5%81%B4%E5%BA%97/IMG_8201.PNG?raw=true"
"59","水源街","金亨殿韓國料理‧嫩豆腐煲專門店","251新北市淡水區水源街二段40號2樓","(02)2621-8118/LINE:@838leylj","https://reurl.cc/gDO9kb","星期一、星期二、星期四~星期日:12:00–22:00/星期三:休息","25.1737797","121.4477701","4.9","4.5分或以上","韓式料理餐廳","https://raw.githubusercontent.com/paulLamProgramming/foodmapimageinTamsui/main/%E6%B0%B4%E6%BA%90%E8%A1%97github/%E9%87%91%E4%BA%A8%E6%AE%BF%E9%9F%93%E5%9C%8B%E6%96%99%E7%90%86%20.%20%E5%AB%A9%E8%B1%86%E8%85%90%E7%85%B2%E5%B0%88%E9%96%80%E5%BA%97/IMG_8208.PNG"
"60","水源街","早安兔寶堡","251新北市淡水區水源街二段46號","0913-757-365","https://reurl.cc/dDER0M","星期二~星期日:09:00–15:00/星期一:休息","25.1736551","121.4479905","4.1","4分或以上","早午餐店","https://github.com/paulLamProgramming/foodmapimageinTamsui/blob/main/%E6%B0%B4%E6%BA%90%E8%A1%97github/%E6%97%A9%E5%AE%89%E5%85%94%E5%AF%B6%E5%A0%A1/IMG_8214.PNG?raw=true"
"61","大田寮","董家炒飯","251新北市淡水區學府路203號","(02) 226223198","https://reurl.cc/zYV0xp","星期一~星期四、星期六:10:30-14:30、16:30–21:30/星期日:10:30-14:30、17:00-21:30/星期五:休息","25.1753057","121.4437569","4","4分或以上","台式料理店","https://github.com/paulLamProgramming/foodmapimageinTamsui/blob/main/%E5%A4%A7%E7%94%B0%E5%AF%AEgithub2/%E8%91%A3%E5%AE%B6%E7%82%92%E9%A3%AF/S__381779981.jpg?raw=true"
"62","大田寮","十指大丼","251新北市淡水區學府路188號","0960-772-112","https://reurl.cc/ZW0DrW","星期一~星期六:11:30–14:30、17:00–20:30/星期日:休息","25.1759639","121.444108","4.4","4分或以上","定食餐廳","https://raw.githubusercontent.com/paulLamProgramming/foodmapimageinTamsui/main/%E5%A4%A7%E7%94%B0%E5%AF%AEgithub/%E5%8D%81%E6%8C%87%E5%A4%A7%E4%B8%BC/IMG_8215.PNG"
"63","大田寮","鍋台銘時尚湯鍋 淡大店","251新北市淡水區學府路211-10號","(02) 226255222","https://reurl.cc/658Wr6","星期一~星期日:10:30-1:00","25.1762826","121.4442198","4.6","4.5分或以上","火鍋餐廳","https://github.com/paulLamProgramming/foodmapimageinTamsui/blob/main/%E5%A4%A7%E7%94%B0%E5%AF%AEgithub2/%E9%8D%8B%E5%8F%B0%E9%8A%98%E6%99%82%E5%B0%9A%E6%B9%AF%E9%8D%8B%20%E6%B7%A1%E5%A4%A7%E5%BA%97/S__381779993.jpg?raw=true"
"64","大田寮","淘鍋百元鍋物-淡水總店","251新北市淡水區學府路186號","(02) 226262489","https://reurl.cc/LAEYR9","星期一~星期日:11:00-3:00","25.1758113","121.4439819","4.7","4.5分或以上","火鍋餐廳","https://github.com/paulLamProgramming/foodmapimageinTamsui/blob/main/%E5%A4%A7%E7%94%B0%E5%AF%AEgithub2/%E6%B7%98%E9%8D%8B%E7%99%BE%E5%85%83%E9%8D%8B%E7%89%A9-%E6%B7%A1%E6%B0%B4%E7%B8%BD%E5%BA%97/S__381771798.jpg?raw=true"
"65","大田寮","Bonbon 美式早餐","251新北市淡水區學府路200號","(02) 226215989","https://reurl.cc/4oAErY","星期一~星期六:06:30–13:30/星期日:休息","25.1760947","121.4445504","4.2","4分或以上","早午餐餐廳","https://github.com/paulLamProgramming/foodmapimageinTamsui/blob/main/%E5%A4%A7%E7%94%B0%E5%AF%AEgithub/Bonbon%20%E7%BE%8E%E5%BC%8F%E6%97%A9%E9%A4%90/IMG_8223.PNG?raw=true"
"66","大田寮","呷子園","251新北市淡水區學府路189號","(02) 226209722","https://reurl.cc/kX6mm9","星期一~星期五:11:20–14:20、17:20–20:50/星期六、星期日:休息","25.1749315","121.4439206","4.2","4分或以上","台式料理店","https://github.com/paulLamProgramming/foodmapimageinTamsui/blob/main/%E5%A4%A7%E7%94%B0%E5%AF%AEgithub/%E5%91%B7%E5%AD%90%E5%9C%92/%E5%91%B7%E5%AD%90%E5%9C%921.jpg?raw=true"
"67","大田寮","手工蒸餃","251新北市淡水區學府路211-9號","無","https://reurl.cc/dDYRRk","星期一~星期六:11:30-14:00、17:00-19:30/星期日:休息","25.1763433","121.2562317","4","4分或以上","餃子店","https://github.com/paulLamProgramming/foodmapimageinTamsui/blob/main/%E5%A4%A7%E7%94%B0%E5%AF%AEgithub/%E6%89%8B%E5%B7%A5%E8%92%B8%E9%A4%83/%E8%92%B8%E9%A4%831.jpg?raw=true"
"68","大田寮","一級棒碳烤","251新北市淡水區學府路192號","(02) 286316661","https://reurl.cc/eDrqjm","星期一~星期日:16:30-0:00","25.1770734","121.3149801","3.9","3分或以上","串燒烤肉店","https://raw.githubusercontent.com/paulLamProgramming/foodmapimageinTamsui/main/%E5%A4%A7%E7%94%B0%E5%AF%AEgithub/%E4%B8%80%E7%B4%9A%E6%A3%92%E7%A2%B3%E7%83%A4/%E4%B8%80%E7%B4%9A%E6%A3%921.jpg"
"69","大田寮","中日和風飯館","251新北市淡水區學府路184號","(02) 226220595","https://reurl.cc/VL9KyN","星期一~星期日:11:00-14:30、17:00-21:00","25.1757945","121.4440624","4","4分或以上","日式料理餐廳","https://raw.githubusercontent.com/paulLamProgramming/foodmapimageinTamsui/main/%E5%A4%A7%E7%94%B0%E5%AF%AEgithub/%E4%B8%AD%E6%97%A5%E5%92%8C%E9%A2%A8%E9%A3%AF%E9%A4%A8/S__381681695.jpg"
"70","大田寮","學府銀記桂林米粉","251新北市淡水區學府路182號","0972-830-998","https://reurl.cc/QXM082","星期一~星期五、星期日:11:30-14:00、17:00-20:30/星期六:休息","25.1757588","121.4466305","4.7","4.5分或以上","米粉店","https://raw.githubusercontent.com/paulLamProgramming/foodmapimageinTamsui/main/%E5%A4%A7%E7%94%B0%E5%AF%AEgithub2/%E5%AD%B8%E5%BA%9C%E9%8A%80%E8%A8%98%E6%A1%82%E6%9E%97%E7%B1%B3%E7%B2%89/%E9%8A%80%E8%A8%981.jpg"
"71","大田寮","丘山雨林素食","251新北市淡水區學府路180號1樓","(02) 226235222","https://reurl.cc/XEzoOE","星期二~星期日:11:30-14:00、17:30-20:00/星期一:休息","25.1757418","121.443952","4.7","4.5分或以上","素食餐廳","https://github.com/paulLamProgramming/foodmapimageinTamsui/blob/main/%E5%A4%A7%E7%94%B0%E5%AF%AEgithub/%E4%B8%98%E5%B1%B1%E9%9B%A8%E6%9E%97%E7%B4%A0%E9%A3%9F/%E4%B8%98%E5%B1%B1%E9%9B%A8%E6%9E%971.jpg?raw=true"
"72","大田寮","大吉祥香豆富","251新北市淡水區學府路171號","(02) 226210719","https://reurl.cc/8jkQrM","星期一~星期日:11:00-20:00","25.1743049","121.4436849","4","4分或以上","滷味店","https://github.com/paulLamProgramming/foodmapimageinTamsui/blob/main/%E5%A4%A7%E7%94%B0%E5%AF%AEgithub/%E5%A4%A7%E5%90%89%E7%A5%A5%E9%A6%99%E8%B1%86%E5%AF%8C/%E9%A6%99%E8%B1%86%E5%AF%8C1.jpg?raw=true"
"73","大田寮","QP CAFE","251新北市淡水區學府路152號","(02) 226224556","https://reurl.cc/kXRmYL","星期一~星期日:12:00-18:00","25.1742739","121.4440054","4.4","4分或以上","咖啡廳","https://github.com/paulLamProgramming/foodmapimageinTamsui/blob/main/%E5%A4%A7%E7%94%B0%E5%AF%AEgithub/QP%20CAFE/IMG_8228.PNG?raw=true"
"74","大田寮","雞婆鹽水雞","251新北市淡水區學府路211之8號","0916-055-356","https://reurl.cc/y7p238","星期一~星期日:16:30-0:00","25.1775123","121.2555435","4.7","4.5分或以上","雞肉餐廳","https://github.com/paulLamProgramming/foodmapimageinTamsui/blob/main/%E5%A4%A7%E7%94%B0%E5%AF%AEgithub2/%E9%9B%9E%E5%A9%86%E9%B9%BD%E6%B0%B4%E9%9B%9E/IMG_8234.PNG?raw=true"
"75","大田寮","淡水憶長安-陝西美食","251新北市淡水區學府路211-8號","0928-983-911","https://reurl.cc/EoAO8g","星期二~星期六:12:00-14:00、17:30-20:30 /星期一、星期日:休息","25.1765284","121.4445942","4.9","4.5分或以上","中式料理餐廳","https://github.com/paulLamProgramming/foodmapimageinTamsui/blob/main/%E5%A4%A7%E7%94%B0%E5%AF%AEgithub/(%E6%9C%89%E6%94%B9%E5%9C%96%E7%89%87)%E6%B7%A1%E6%B0%B4%E6%86%B6%E9%95%B7%E5%AE%89-%E9%99%9D%E8%A5%BF%E7%BE%8E%E9%A3%9F/S__381779970.jpg?raw=true"
"76","大田寮","八兩特大雞排","251新北市淡水區學府路170號","(02) 286317025","https://reurl.cc/GA1MZv","星期一~星期五、星期日:16:00-1:30/星期六:休息","25.1752403","121.443944","4.4","4分或以上","炸物店","https://raw.githubusercontent.com/paulLamProgramming/foodmapimageinTamsui/main/%E5%A4%A7%E7%94%B0%E5%AF%AEgithub/%E5%85%AB%E5%85%A9%E7%89%B9%E5%A4%A7%E9%9B%9E%E6%8E%92/S__381681674.jpg"
"77","大田寮","嘟嘟牛牛排館","251新北市淡水區學府路187號","(02) 226232333","https://reurl.cc/aVo65l","星期一~星期五:16:00–22:00/星期六、星期日:休息","25.1749213","121.4439158","4.8","4.5分或以上","美式扒房","https://raw.githubusercontent.com/paulLamProgramming/foodmapimageinTamsui/main/%E5%A4%A7%E7%94%B0%E5%AF%AEgithub2/%E5%98%9F%E5%98%9F%E7%89%9B%E7%89%9B%E6%8E%92%E9%A4%A8/IMG_8240.PNG"
"78","大田寮","多朗克美式早餐","251新北市淡水區學府路191號","(02) 226263238","https://reurl.cc/51m0gM","星期一~星期三、星期五~星期日:7:00-15:30/星期四:休息","25.1749439","121.4439153","4.3","4分或以上","早午餐餐廳","https://raw.githubusercontent.com/paulLamProgramming/foodmapimageinTamsui/main/%E5%A4%A7%E7%94%B0%E5%AF%AEgithub/%E5%A4%9A%E6%9C%97%E5%85%8B%E7%BE%8E%E5%BC%8F%E6%97%A9%E9%A4%90/S__381771780.jpg"
"79","大田寮","淡水鴉片粉圓","251新北市淡水區學府路162號","(02) 226269931","https://reurl.cc/K0GV69","星期一~星期日:12:00-0:00","25.174814","121.4441679","4.2","4分或以上","甜品店","https://raw.githubusercontent.com/paulLamProgramming/foodmapimageinTamsui/main/%E5%A4%A7%E7%94%B0%E5%AF%AEgithub2/%E6%B7%A1%E6%B0%B4%E9%B4%89%E7%89%87%E7%B2%89%E5%9C%93/S__381771806.jpg"
"80","大田寮","小石府石頭小火鍋","251新北市淡水區學府路211-13號","(02) 226267526","https://reurl.cc/GA1Mkv","星期一~星期五:11:00-17:00/星期六、星期日:休息","25.1761084","121.4441067","4.6","4.5分或以上","火鍋餐廳","https://github.com/paulLamProgramming/foodmapimageinTamsui/blob/main/%E5%A4%A7%E7%94%B0%E5%AF%AEgithub/%E5%B0%8F%E7%9F%B3%E5%BA%9C%E7%9F%B3%E9%A0%AD%E5%B0%8F%E7%81%AB%E9%8D%8B/S__381681685.jpg?raw=true"
"81","淡大校內","QP terrace 覺軒會館","251新北市淡水區英專路151號","0933-206-044","https://reurl.cc/GA9WNW","星期一~星期日:11:30–19:00","25.17367","121.445911","4.4","4分或以上","義式料理餐廳","https://github.com/paulLamProgramming/foodmapimageinTamsui/blob/main/%E6%B7%A1%E5%A4%A7%E6%A0%A1%E5%85%A7/QP%20terrace%20%E8%A6%BA%E8%BB%92%E6%9C%83%E9%A4%A8/IMG_8132.PNG?raw=true"
"82","淡大校內","古今中外咖啡廳","251新北市淡水區英專路151號","0981-753-993","https://reurl.cc/qLxQKg","星期一~星期五:11:00–16:00/星期六、星期日:休息","25.1750629","121.4482412","4.1","4分或以上","排餐餐廳","https://github.com/paulLamProgramming/foodmapimageinTamsui/blob/main/%E6%B7%A1%E5%A4%A7%E6%A0%A1%E5%85%A7/%E5%8F%A4%E4%BB%8A%E4%B8%AD%E5%A4%96%E5%92%96%E5%95%A1%E5%BB%B3/IMG_8142.PNG?raw=true"
"83","淡大校內","小木屋鬆餅 淡江大學店","251新北市淡水區英專路151號","(02) 226227901","https://reurl.cc/11dykW","星期一~星期五:09:30–19:00/星期六、星期日:10:00–18:00","25.1759466","121.4471247","4.6","4.5分或以上","輕食餐廳","https://raw.githubusercontent.com/paulLamProgramming/foodmapimageinTamsui/b8b61a02cd4493eb5f6e4745e1534f09b931ee96/%E6%B7%A1%E5%A4%A7%E6%A0%A1%E5%85%A7/%E5%B0%8F%E6%9C%A8%E5%B1%8B%E9%AC%86%E9%A4%85%20%E6%B7%A1%E6%B1%9F%E5%A4%A7%E5%AD%B8%E5%BA%97/IMG_8144.PNG"
"84","淡大校內","藍白小鎮-淡大店","251新北市淡水區英專路151號","(02) 226231061","https://reurl.cc/516YXn","星期一~星期五:10:00–18:00/星期六:11:00–17:00/星期日:休息","25.176721","121.447863","4.8","4.5分或以上","咖啡廳","https://raw.githubusercontent.com/paulLamProgramming/foodmapimageinTamsui/b8b61a02cd4493eb5f6e4745e1534f09b931ee96/%E6%B7%A1%E5%A4%A7%E6%A0%A1%E5%85%A7/%E8%97%8D%E7%99%BD%E5%B0%8F%E9%8E%AE-%E6%B7%A1%E5%A4%A7%E5%BA%97/IMG_8151.PNG"
"85","淡大校內","淡江大學美食廣場","251新北市淡水區英專路151號松濤館(Z)","無","https://reurl.cc/M8aq94","星期一~星期五:07:00–19:30/星期六、星期日:休息","25.1750113","121.4497382","4.7","4.5分或以上","自助餐店","https://raw.githubusercontent.com/paulLamProgramming/foodmapimageinTamsui/b8b61a02cd4493eb5f6e4745e1534f09b931ee96/%E6%B7%A1%E5%A4%A7%E6%A0%A1%E5%85%A7/%E6%B7%A1%E6%B1%9F%E5%A4%A7%E5%AD%B8%E7%BE%8E%E9%A3%9F%E5%BB%A3%E5%A0%B4(%E7%84%A1%E8%8F%9C%E5%96%AE%E3%80%81%E5%BA%97%E9%9D%A2)/IMG_8163.PNG"
